{
  "type": "FeatureCollection",
  "features": [
    {
      "type": "Feature",
      "properties": {
        "norad_id": 66425,
        "name": "STARLINK-35555",
        "group": "last-30-days",
        "lat": 42.978441116433245,
        "lon": -165.25844835224382,
        "alt_km": 409.0294813613691,
        "timestamp": "2025-12-02T23:34:14.290270+00:00",
        "meta_object_name": "STARLINK-35555",
        "meta_object_id": "2025-259D",
        "meta_epoch": "2025-12-02T12:00:05.998752",
        "meta_mean_motion": 15.50566254,
        "meta_eccentricity": 0.000124,
        "meta_inclination": 42.9994,
        "meta_ra_of_asc_node": 107.2178,
        "meta_arg_of_pericenter": 262.8709,
        "meta_mean_anomaly": 13.3729,
        "meta_ephemeris_type": 0,
        "meta_classification_type": "U",
        "meta_norad_cat_id": 66425,
        "meta_element_set_no": 999,
        "meta_rev_at_epoch": 463,
        "meta_bstar": 0.00031381,
        "meta_mean_motion_dot": 0.00018102,
        "meta_mean_motion_ddot": 0,
        "tle_line1": "1 66425U 25259D   25336.50006943  .00018102  00000+0  31381-3 0  9992",
        "tle_line2": "2 66425  42.9994 107.2178 0001240 262.8709  13.3729 15.50566254  4636"
      },
      "geometry": {
        "type": "Point",
        "coordinates": [
          -165.25844835224382,
          42.978441116433245
        ]
      }
    },
    {
      "type": "Feature",
      "properties": {
        "norad_id": 66426,
        "name": "STARLINK-35589",
        "group": "last-30-days",
        "lat": 42.941303677368126,
        "lon": -162.66899213420945,
        "alt_km": 408.96514753377505,
        "timestamp": "2025-12-02T23:34:14.290283+00:00",
        "meta_object_name": "STARLINK-35589",
        "meta_object_id": "2025-259E",
        "meta_epoch": "2025-12-02T12:00:05.998752",
        "meta_mean_motion": 15.50518157,
        "meta_eccentricity": 0.000129,
        "meta_inclination": 42.9993,
        "meta_ra_of_asc_node": 107.2145,
        "meta_arg_of_pericenter": 262.055,
        "meta_mean_anomaly": 16.0995,
        "meta_ephemeris_type": 0,
        "meta_classification_type": "U",
        "meta_norad_cat_id": 66426,
        "meta_element_set_no": 999,
        "meta_rev_at_epoch": 463,
        "meta_bstar": 0.0017166,
        "meta_mean_motion_dot": 0.00101456,
        "meta_mean_motion_ddot": 0,
        "tle_line1": "1 66426U 25259E   25336.50006943  .00101456  00000+0  17166-2 0  9992",
        "tle_line2": "2 66426  42.9993 107.2145 0001290 262.0550  16.0995 15.50518157  4635"
      },
      "geometry": {
        "type": "Point",
        "coordinates": [
          -162.66899213420945,
          42.941303677368126
        ]
      }
    },
    {
      "type": "Feature",
      "properties": {
        "norad_id": 66427,
        "name": "STARLINK-35611",
        "group": "last-30-days",
        "lat": 42.84355133700141,
        "lon": -160.03785762842364,
        "alt_km": 409.1061201136181,
        "timestamp": "2025-12-02T23:34:14.290295+00:00",
        "meta_object_name": "STARLINK-35611",
        "meta_object_id": "2025-259F",
        "meta_epoch": "2025-12-02T12:00:05.998752",
        "meta_mean_motion": 15.50563171,
        "meta_eccentricity": 0.0001377,
        "meta_inclination": 42.9994,
        "meta_ra_of_asc_node": 107.2087,
        "meta_arg_of_pericenter": 257.0704,
        "meta_mean_anomaly": 23.0021,
        "meta_ephemeris_type": 0,
        "meta_classification_type": "U",
        "meta_norad_cat_id": 66427,
        "meta_element_set_no": 999,
        "meta_rev_at_epoch": 463,
        "meta_bstar": 0.00043826,
        "meta_mean_motion_dot": 0.00025438,
        "meta_mean_motion_ddot": 0,
        "tle_line1": "1 66427U 25259F   25336.50006943  .00025438  00000+0  43826-3 0  9991",
        "tle_line2": "2 66427  42.9994 107.2087 0001377 257.0704  23.0021 15.50563171  4637"
      },
      "geometry": {
        "type": "Point",
        "coordinates": [
          -160.03785762842364,
          42.84355133700141
        ]
      }
    },
    {
      "type": "Feature",
      "properties": {
        "norad_id": 66428,
        "name": "STARLINK-35610",
        "group": "last-30-days",
        "lat": 42.687977165038404,
        "lon": -157.45025122456502,
        "alt_km": 408.9637528941803,
        "timestamp": "2025-12-02T23:34:14.290304+00:00",
        "meta_object_name": "STARLINK-35610",
        "meta_object_id": "2025-259G",
        "meta_epoch": "2025-12-02T12:00:05.998752",
        "meta_mean_motion": 15.50520572,
        "meta_eccentricity": 0.0001263,
        "meta_inclination": 42.9995,
        "meta_ra_of_asc_node": 107.2045,
        "meta_arg_of_pericenter": 259.3943,
        "meta_mean_anomaly": 22.5961,
        "meta_ephemeris_type": 0,
        "meta_classification_type": "U",
        "meta_norad_cat_id": 66428,
        "meta_element_set_no": 999,
        "meta_rev_at_epoch": 463,
        "meta_bstar": 0.0017055,
        "meta_mean_motion_dot": 0.00100798,
        "meta_mean_motion_ddot": 0,
        "tle_line1": "1 66428U 25259G   25336.50006943  .00100798  00000+0  17055-2 0  9999",
        "tle_line2": "2 66428  42.9995 107.2045 0001263 259.3943  22.5961 15.50520572  4632"
      },
      "geometry": {
        "type": "Point",
        "coordinates": [
          -157.45025122456502,
          42.687977165038404
        ]
      }
    },
    {
      "type": "Feature",
      "properties": {
        "norad_id": 66429,
        "name": "STARLINK-35533",
        "group": "last-30-days",
        "lat": 42.47321391503085,
        "lon": -154.87071886535568,
        "alt_km": 409.02085437507867,
        "timestamp": "2025-12-02T23:34:14.290314+00:00",
        "meta_object_name": "STARLINK-35533",
        "meta_object_id": "2025-259H",
        "meta_epoch": "2025-12-02T12:00:05.998752",
        "meta_mean_motion": 15.50518617,
        "meta_eccentricity": 0.00013,
        "meta_inclination": 42.9994,
        "meta_ra_of_asc_node": 107.1982,
        "meta_arg_of_pericenter": 259.1942,
        "meta_mean_anomaly": 24.7142,
        "meta_ephemeris_type": 0,
        "meta_classification_type": "U",
        "meta_norad_cat_id": 66429,
        "meta_element_set_no": 999,
        "meta_rev_at_epoch": 463,
        "meta_bstar": 0.0016928,
        "meta_mean_motion_dot": 0.00100028,
        "meta_mean_motion_ddot": 0,
        "tle_line1": "1 66429U 25259H   25336.50006943  .00100028  00000+0  16928-2 0  9994",
        "tle_line2": "2 66429  42.9994 107.1982 0001300 259.1942  24.7142 15.50518617  4632"
      },
      "geometry": {
        "type": "Point",
        "coordinates": [
          -154.87071886535568,
          42.47321391503085
        ]
      }
    },
    {
      "type": "Feature",
      "properties": {
        "norad_id": 66430,
        "name": "STARLINK-35470",
        "group": "last-30-days",
        "lat": 42.20493636222986,
        "lon": -152.34260519329098,
        "alt_km": 409.1693788185903,
        "timestamp": "2025-12-02T23:34:14.290326+00:00",
        "meta_object_name": "STARLINK-35470",
        "meta_object_id": "2025-259J",
        "meta_epoch": "2025-12-02T12:00:05.998752",
        "meta_mean_motion": 15.5053258,
        "meta_eccentricity": 0.0001366,
        "meta_inclination": 42.9995,
        "meta_ra_of_asc_node": 107.1943,
        "meta_arg_of_pericenter": 259.5489,
        "meta_mean_anomaly": 26.256,
        "meta_ephemeris_type": 0,
        "meta_classification_type": "U",
        "meta_norad_cat_id": 66430,
        "meta_element_set_no": 999,
        "meta_rev_at_epoch": 463,
        "meta_bstar": 0.0010376,
        "meta_mean_motion_dot": 0.00060904,
        "meta_mean_motion_ddot": 0,
        "tle_line1": "1 66430U 25259J   25336.50006943  .00060904  00000+0  10376-2 0  9995",
        "tle_line2": "2 66430  42.9995 107.1943 0001366 259.5489  26.2560 15.50532580  4630"
      },
      "geometry": {
        "type": "Point",
        "coordinates": [
          -152.34260519329098,
          42.20493636222986
        ]
      }
    },
    {
      "type": "Feature",
      "properties": {
        "norad_id": 66431,
        "name": "STARLINK-35439",
        "group": "last-30-days",
        "lat": 41.87828517755796,
        "lon": -149.81878926064613,
        "alt_km": 409.1981014470348,
        "timestamp": "2025-12-02T23:34:14.290336+00:00",
        "meta_object_name": "STARLINK-35439",
        "meta_object_id": "2025-259K",
        "meta_epoch": "2025-12-02T12:00:05.998752",
        "meta_mean_motion": 15.50527308,
        "meta_eccentricity": 0.0001355,
        "meta_inclination": 42.9994,
        "meta_ra_of_asc_node": 107.1884,
        "meta_arg_of_pericenter": 254.9521,
        "meta_mean_anomaly": 32.7695,
        "meta_ephemeris_type": 0,
        "meta_classification_type": "U",
        "meta_norad_cat_id": 66431,
        "meta_element_set_no": 999,
        "meta_rev_at_epoch": 463,
        "meta_bstar": 0.0010022,
        "meta_mean_motion_dot": 0.00058786,
        "meta_mean_motion_ddot": 0,
        "tle_line1": "1 66431U 25259K   25336.50006943  .00058786  00000+0  10022-2 0  9999",
        "tle_line2": "2 66431  42.9994 107.1884 0001355 254.9521  32.7695 15.50527308  4631"
      },
      "geometry": {
        "type": "Point",
        "coordinates": [
          -149.81878926064613,
          41.87828517755796
        ]
      }
    }
  ]
}